{"fetched_at":"2026-07-21T17:53:08.726Z","source":"https://celestrak.org/NORAD/elements/gp.php?GROUP=qianfan&FORMAT=JSON","constellation":"qianfan","records":[{"OBJECT_NAME":"QIANFAN-161","OBJECT_ID":"2026-108S","EPOCH":"2026-07-20T22:47:21.367968","CLASSIFICATION_TYPE":"U","MEAN_MOTION":13.6669921,"ECCENTRICITY":0.002257,"INCLINATION":89.0103,"RA_OF_ASC_NODE":18.5883,"ARG_OF_PERICENTER":24.2329,"MEAN_ANOMALY":335.9888,"EPHEMERIS_TYPE":0,"NORAD_CAT_ID":69120,"ELEMENT_SET_NO":999,"REV_AT_EPOCH":904,"BSTAR":-2.6696474,"MEAN_MOTION_DOT":-0.02075324,"MEAN_MOTION_DDOT":0},{"OBJECT_NAME":"QIANFAN-162","OBJECT_ID":"2026-108T","EPOCH":"2026-07-20T23:22:15.270240","CLASSIFICATION_TYPE":"U","MEAN_MOTION":13.58076441,"ECCENTRICITY":0.00202102,"INCLINATION":89.0102,"RA_OF_ASC_NODE":18.6064,"ARG_OF_PERICENTER":7.0687,"MEAN_ANOMALY":353.0749,"EPHEMERIS_TYPE":0,"NORAD_CAT_ID":69121,"ELEMENT_SET_NO":999,"REV_AT_EPOCH":902,"BSTAR":-2.874137,"MEAN_MOTION_DOT":-0.0193208,"MEAN_MOTION_DDOT":0},{"OBJECT_NAME":"QIANFAN-163","OBJECT_ID":"2026-121A","EPOCH":"2026-07-08T23:20:22.023168","CLASSIFICATION_TYPE":"U","MEAN_MOTION":13.53894414,"ECCENTRICITY":0.00204807,"INCLINATION":89.0049,"RA_OF_ASC_NODE":298.3591,"ARG_OF_PERICENTER":118.563,"MEAN_ANOMALY":241.7588,"EPHEMERIS_TYPE":0,"NORAD_CAT_ID":69325,"ELEMENT_SET_NO":999,"REV_AT_EPOCH":511,"BSTAR":-0.000006639878,"MEAN_MOTION_DOT":8e-8,"MEAN_MOTION_DDOT":0},{"OBJECT_NAME":"QIANFAN-164","OBJECT_ID":"2026-121B","EPOCH":"2026-07-13T16:07:09.757344","CLASSIFICATION_TYPE":"U","MEAN_MOTION":13.49695561,"ECCENTRICITY":0.00228451,"INCLINATION":89.0183,"RA_OF_ASC_NODE":297.8725,"ARG_OF_PERICENTER":112.6356,"MEAN_ANOMALY":247.7213,"EPHEMERIS_TYPE":0,"NORAD_CAT_ID":69326,"ELEMENT_SET_NO":999,"REV_AT_EPOCH":574,"BSTAR":0.000078131509,"MEAN_MOTION_DOT":6.2e-7,"MEAN_MOTION_DDOT":0},{"OBJECT_NAME":"QIANFAN-165","OBJECT_ID":"2026-124A","EPOCH":"2026-07-21T01:17:27.154464","CLASSIFICATION_TYPE":"U","MEAN_MOTION":13.83784013,"ECCENTRICITY":0.00070036,"INCLINATION":88.9967,"RA_OF_ASC_NODE":358.2674,"ARG_OF_PERICENTER":47.0246,"MEAN_ANOMALY":313.151,"EPHEMERIS_TYPE":0,"NORAD_CAT_ID":69382,"ELEMENT_SET_NO":999,"REV_AT_EPOCH":657,"BSTAR":0.000027189443,"MEAN_MOTION_DOT":4.3e-7,"MEAN_MOTION_DDOT":0},{"OBJECT_NAME":"QIANFAN-166","OBJECT_ID":"2026-124B","EPOCH":"2026-07-21T05:27:41.896800","CLASSIFICATION_TYPE":"U","MEAN_MOTION":13.85265075,"ECCENTRICITY":0.00069194,"INCLINATION":89.0017,"RA_OF_ASC_NODE":358.2451,"ARG_OF_PERICENTER":43.2018,"MEAN_ANOMALY":316.9694,"EPHEMERIS_TYPE":0,"NORAD_CAT_ID":69383,"ELEMENT_SET_NO":999,"REV_AT_EPOCH":660,"BSTAR":0.00002848195,"MEAN_MOTION_DOT":4.6e-7,"MEAN_MOTION_DDOT":0},{"OBJECT_NAME":"QIANFAN-167","OBJECT_ID":"2026-124C","EPOCH":"2026-07-17T21:00:41.588640","CLASSIFICATION_TYPE":"U","MEAN_MOTION":13.8400683,"ECCENTRICITY":0.00094646,"INCLINATION":88.9997,"RA_OF_ASC_NODE":358.6171,"ARG_OF_PERICENTER":61.7925,"MEAN_ANOMALY":298.42,"EPHEMERIS_TYPE":0,"NORAD_CAT_ID":69384,"ELEMENT_SET_NO":999,"REV_AT_EPOCH":613,"BSTAR":-2.0293116,"MEAN_MOTION_DOT":-0.02097118,"MEAN_MOTION_DDOT":0},{"OBJECT_NAME":"QIANFAN-168","OBJECT_ID":"2026-124D","EPOCH":"2026-07-20T20:59:48.179616","CLASSIFICATION_TYPE":"U","MEAN_MOTION":13.81866811,"ECCENTRICITY":0.00098427,"INCLINATION":88.9993,"RA_OF_ASC_NODE":358.2854,"ARG_OF_PERICENTER":56.4262,"MEAN_ANOMALY":303.7845,"EPHEMERIS_TYPE":0,"NORAD_CAT_ID":69385,"ELEMENT_SET_NO":999,"REV_AT_EPOCH":655,"BSTAR":0.000027637494,"MEAN_MOTION_DOT":4.3e-7,"MEAN_MOTION_DDOT":0},{"OBJECT_NAME":"QIANFAN-169","OBJECT_ID":"2026-124E","EPOCH":"2026-07-21T05:15:45.783360","CLASSIFICATION_TYPE":"U","MEAN_MOTION":13.8204998,"ECCENTRICITY":0.00101025,"INCLINATION":89.0006,"RA_OF_ASC_NODE":358.2426,"ARG_OF_PERICENTER":57.1424,"MEAN_ANOMALY":303.0715,"EPHEMERIS_TYPE":0,"NORAD_CAT_ID":69386,"ELEMENT_SET_NO":999,"REV_AT_EPOCH":660,"BSTAR":0.000030850366,"MEAN_MOTION_DOT":4.6e-7,"MEAN_MOTION_DDOT":0},{"OBJECT_NAME":"QIANFAN-170","OBJECT_ID":"2026-124F","EPOCH":"2026-07-20T21:16:41.321568","CLASSIFICATION_TYPE":"U","MEAN_MOTION":13.8740227,"ECCENTRICITY":0.00095722,"INCLINATION":89.0009,"RA_OF_ASC_NODE":358.2639,"ARG_OF_PERICENTER":42.9309,"MEAN_ANOMALY":317.2608,"EPHEMERIS_TYPE":0,"NORAD_CAT_ID":69387,"ELEMENT_SET_NO":999,"REV_AT_EPOCH":656,"BSTAR":0.000025752278,"MEAN_MOTION_DOT":4.4e-7,"MEAN_MOTION_DDOT":0},{"OBJECT_NAME":"QIANFAN-171","OBJECT_ID":"2026-124G","EPOCH":"2026-07-20T20:59:08.474496","CLASSIFICATION_TYPE":"U","MEAN_MOTION":13.86059736,"ECCENTRICITY":0.00088491,"INCLINATION":89.0013,"RA_OF_ASC_NODE":358.2649,"ARG_OF_PERICENTER":65.89,"MEAN_ANOMALY":294.3196,"EPHEMERIS_TYPE":0,"NORAD_CAT_ID":69388,"ELEMENT_SET_NO":999,"REV_AT_EPOCH":656,"BSTAR":0.000024231574,"MEAN_MOTION_DOT":4.1e-7,"MEAN_MOTION_DDOT":0},{"OBJECT_NAME":"QIANFAN-172","OBJECT_ID":"2026-124H","EPOCH":"2026-07-20T20:52:31.863072","CLASSIFICATION_TYPE":"U","MEAN_MOTION":13.88232661,"ECCENTRICITY":0.00079094,"INCLINATION":88.9998,"RA_OF_ASC_NODE":358.2677,"ARG_OF_PERICENTER":59.8249,"MEAN_ANOMALY":300.3706,"EPHEMERIS_TYPE":0,"NORAD_CAT_ID":69389,"ELEMENT_SET_NO":999,"REV_AT_EPOCH":656,"BSTAR":0.000024712396,"MEAN_MOTION_DOT":4.3e-7,"MEAN_MOTION_DDOT":0},{"OBJECT_NAME":"QIANFAN-173","OBJECT_ID":"2026-124J","EPOCH":"2026-07-21T03:26:32.529120","CLASSIFICATION_TYPE":"U","MEAN_MOTION":13.87024147,"ECCENTRICITY":0.0008323,"INCLINATION":89.0006,"RA_OF_ASC_NODE":358.234,"ARG_OF_PERICENTER":48.3878,"MEAN_ANOMALY":311.8005,"EPHEMERIS_TYPE":0,"NORAD_CAT_ID":69390,"ELEMENT_SET_NO":999,"REV_AT_EPOCH":660,"BSTAR":0.000024091128,"MEAN_MOTION_DOT":4.1e-7,"MEAN_MOTION_DDOT":0},{"OBJECT_NAME":"QIANFAN-174","OBJECT_ID":"2026-124K","EPOCH":"2026-07-20T21:14:21.579936","CLASSIFICATION_TYPE":"U","MEAN_MOTION":13.9343035,"ECCENTRICITY":0.00094875,"INCLINATION":89.0009,"RA_OF_ASC_NODE":358.2459,"ARG_OF_PERICENTER":48.9904,"MEAN_ANOMALY":311.209,"EPHEMERIS_TYPE":0,"NORAD_CAT_ID":69391,"ELEMENT_SET_NO":999,"REV_AT_EPOCH":656,"BSTAR":0.000025050639,"MEAN_MOTION_DOT":4.6e-7,"MEAN_MOTION_DDOT":0},{"OBJECT_NAME":"QIANFAN-175","OBJECT_ID":"2026-124L","EPOCH":"2026-07-21T02:50:27.237984","CLASSIFICATION_TYPE":"U","MEAN_MOTION":13.90332322,"ECCENTRICITY":0.00078356,"INCLINATION":89.0013,"RA_OF_ASC_NODE":358.2282,"ARG_OF_PERICENTER":56.0141,"MEAN_ANOMALY":304.1776,"EPHEMERIS_TYPE":0,"NORAD_CAT_ID":69392,"ELEMENT_SET_NO":999,"REV_AT_EPOCH":660,"BSTAR":0.000021204915,"MEAN_MOTION_DOT":4e-7,"MEAN_MOTION_DDOT":0},{"OBJECT_NAME":"QIANFAN-176","OBJECT_ID":"2026-124M","EPOCH":"2026-07-20T20:07:47.249184","CLASSIFICATION_TYPE":"U","MEAN_MOTION":13.85953251,"ECCENTRICITY":0.00085276,"INCLINATION":89.0057,"RA_OF_ASC_NODE":358.2474,"ARG_OF_PERICENTER":49.8791,"MEAN_ANOMALY":310.3126,"EPHEMERIS_TYPE":0,"NORAD_CAT_ID":69393,"ELEMENT_SET_NO":999,"REV_AT_EPOCH":655,"BSTAR":0.000027087689,"MEAN_MOTION_DOT":4.4e-7,"MEAN_MOTION_DDOT":0}]}
