QIANFAN-161             
1 69120U 26108S   26201.94955287 -.02075324  00000+0 -26696+1 0  9998
2 69120  89.0103  18.5883 0022570  24.2329 335.9888 13.66699210  9042
QIANFAN-162             
1 69121U 26108T   26201.97378785 -.01932080  00000+0 -28741+1 0  9997
2 69121  89.0102  18.6064 0020210   7.0687 353.0749 13.58076441  9020
QIANFAN-163             
1 69325U 26121A   26189.97247712  .00000008  00000+0 -66399-5 0  9998
2 69325  89.0049 298.3591 0020480 118.5630 241.7588 13.53894414  5116
QIANFAN-164             
1 69326U 26121B   26194.67164071  .00000062  00000+0  78132-4 0  9994
2 69326  89.0183 297.8725 0022845 112.6356 247.7213 13.49695561  5743
QIANFAN-165             
1 69382U 26124A   26202.05378651  .00000043  00000+0  27189-4 0  9997
2 69382  88.9967 358.2674 0007003  47.0246 313.1510 13.83784013  6575
QIANFAN-166             
1 69383U 26124B   26202.22756825  .00000046  00000+0  28482-4 0  9990
2 69383  89.0017 358.2451 0006919  43.2018 316.9694 13.85265075  6609
QIANFAN-167             
1 69384U 26124C   26198.87548135 -.02097118  00000+0 -20293+1 0  9997
2 69384  88.9997 358.6171 0009464  61.7925 298.4200 13.84006830  6134
QIANFAN-168             
1 69385U 26124D   26201.87486319  .00000043  00000+0  27637-4 0  9998
2 69385  88.9993 358.2854 0009842  56.4262 303.7845 13.81866811  6551
QIANFAN-169             
1 69386U 26124E   26202.21927990  .00000046  00000+0  30850-4 0  9997
2 69386  89.0006 358.2426 0010102  57.1424 303.0715 13.82049980  6609
QIANFAN-170             
1 69387U 26124F   26201.88658937  .00000044  00000+0  25752-4 0  9995
2 69387  89.0009 358.2639 0009572  42.9309 317.2608 13.87402270  6565
QIANFAN-171             
1 69388U 26124G   26201.87440364  .00000041  00000+0  24232-4 0  9997
2 69388  89.0013 358.2649 0008849  65.8900 294.3196 13.86059736  6560
QIANFAN-172             
1 69389U 26124H   26201.86981323  .00000043  00000+0  24712-4 0  9997
2 69389  88.9998 358.2677 0007909  59.8249 300.3706 13.88232661  6564
QIANFAN-173             
1 69390U 26124J   26202.14343205  .00000041  00000+0  24091-4 0  9990
2 69390  89.0006 358.2340 0008323  48.3878 311.8005 13.87024147  6608
QIANFAN-174             
1 69391U 26124K   26201.88497199  .00000046  00000+0  25051-4 0  9995
2 69391  89.0009 358.2459 0009487  48.9904 311.2090 13.93430350  6568
QIANFAN-175             
1 69392U 26124L   26202.11837081  .00000040  00000+0  21205-4 0  9992
2 69392  89.0013 358.2282 0007835  56.0141 304.1776 13.90332322  6600
QIANFAN-176             
1 69393U 26124M   26201.83874131  .00000044  00000+0  27088-4 0  9997
2 69393  89.0057 358.2474 0008527  49.8791 310.3126 13.85953251  6558
